STARLINK-32494          
1 62053U 24216X   26068.55623014  .00032063  00000+0  11691-2 0  9992
2 62053  42.9985 264.1302 0001508 260.6678  99.4003 15.27593993 73774
LIME                    
1 62648U 25009AR  26068.73906781  .00013254  00000+0  47723-3 0  9995
2 62648  97.3985 151.4831 0001635  35.9029 324.2320 15.28703313 63766
